ONEWEB-0068             
1 45446U 20020Y   26199.89278366  .00000482  00000+0  13234-2 0  9991
2 45446  87.8893  14.7517 0001599  93.5102 266.6209 13.11425119306757
ONEWEB-0046             
1 45447U 20020Z   26199.88444821 -.00000239  00000+0 -70919-3 0  9998
2 45447  87.8886  14.7574 0001595  85.7534 274.3776 13.11415702306764
ONEWEB-0063             
1 45448U 20020AA  26199.45564074 -.00000066  00000+0 -22214-3 0  9998
2 45448  87.8897  14.8444 0001870  81.9654 278.1686 13.11418412306797
ONEWEB-0019             
1 45449U 20020AB  26199.87584984  .00000132  00000+0  33695-3 0  9994
2 45449  87.8889  14.7452 0002000  96.6923 263.4433 13.11414907306696
ONEWEB-0094             
1 45450U 20020AC  26199.86833488 -.00000022  00000+0 -90437-4 0  9999
2 45450  87.9158 359.5495 0001851 100.8882 259.2458 13.17648965310481
ONEWEB-0087             
1 45451U 20020AD  26199.84702347  .00000233  00000+0  62171-3 0  9992
2 45451  87.8904  14.7431 0001595  97.7801 262.3508 13.11418949306735
ONEWEB-0082             
1 45452U 20020AE  26199.46214775  .00000204  00000+0  53976-3 0  9995
2 45452  87.8895  14.8337 0001359  91.3226 268.8058 13.11419052306771
ONEWEB-0050             
1 45453U 20020AF  26199.83252764  .00000921  00000+0  92164-4 0  9996
2 45453  88.9278 228.9117 0002783 165.4637 194.6672 14.90477597345096
ONEWEB-0034             
1 45454U 20020AG  26199.95752682 -.00000073  00000+0 -24298-3 0  9996
2 45454  87.8895  14.7441 0001805  88.9675 271.1660 13.11414069306751
ONEWEB-0060             
1 45455U 20020AH  26199.45465616 -.00000118  00000+0 -36837-3 0  9992
2 45455  87.8891  14.8401 0001365 124.0091 236.1167 13.11418901306640
ONEWEB-0086             
1 45456U 20020AJ  26199.89109561 -.00000399  00000+0 -11627-2 0  9995
2 45456  87.8895  14.7510 0001974 114.5132 245.6201 13.11416356306760
ONEWEB-0088             
1 45457U 20020AK  26199.86919895  .00000403  00000+0  11016-2 0  9998
2 45457  87.8904  14.7304 0001666  78.5882 281.5433 13.11415366306690
ONEWEB-0102             
1 47258U 20100A   26199.84863072  .00000427  00000+0  11522-2 0  9999
2 47258  87.8965 344.3791 0002080 103.0857 257.0504 13.12443335268880
ONEWEB-0109             
1 47259U 20100B   26199.85709987  .00000375  00000+0  10069-2 0  9992
2 47259  87.8976 344.3636 0002010  96.7056 263.4301 13.12442864268717
ONEWEB-0110             
1 47260U 20100C   26199.88420638 -.00000341  00000+0 -98398-3 0  9997
2 47260  87.8977 344.3421 0001854 105.9073 254.2260 13.12442779268884
ONEWEB-0111             
1 47261U 20100D   26199.83846423  .00000150  00000+0  38121-3 0  9991
2 47261  87.8976 344.3702 0001774  99.1223 261.0106 13.12444166268717
ONEWEB-0114             
1 47262U 20100E   26199.86895764  .00000088  00000+0  20985-3 0  9996
2 47262  87.8980 344.3619 0002092  97.2341 262.9026 13.12441593268671
ONEWEB-0117             
1 47263U 20100F   26199.86049034  .00000351  00000+0  94017-3 0  9998
2 47263  87.8974 344.3536 0001870  98.6913 261.4427 13.12441861268684
ONEWEB-0118             
1 47264U 20100G   26199.89436831 -.00000374  00000+0 -10761-2 0  9997
2 47264  87.8974 344.3496 0001930  86.8405 273.2944 13.12442537268880
ONEWEB-0119             
1 47265U 20100H   26199.84355126  .00000334  00000+0  89228-3 0  9999
2 47265  87.8964 344.3736 0001896  96.7943 263.3402 13.12443306268856
ONEWEB-0120             
1 47266U 20100J   26199.86740457  .00000182  00000+0  47099-3 0  9998
2 47266  87.8966 344.3704 0002014  95.0800 265.0559 13.12441554268889
ONEWEB-0121             
1 47267U 20100K   26199.85540710  .00000458  00000+0  12391-2 0  9990
2 47267  87.8976 344.3618 0001609 101.7976 258.3333 13.12442251268793
ONEWEB-0122             
1 47268U 20100L   26199.84948032  .00000425  00000+0  11467-2 0  9996
2 47268  87.8976 344.3681 0002047  99.7368 260.3992 13.12441444268700
ONEWEB-0123             
1 47269U 20100M   26199.84524073  .00000334  00000+0  89338-3 0  9994
2 47269  87.8964 344.3724 0001870  93.7250 266.4092 13.12443062268844
ONEWEB-0124             
1 47270U 20100N   26199.83507288  .00000048  00000+0  96734-4 0  9995
2 47270  87.8963 344.3769 0001759  97.9260 262.2068 13.12443768268724
ONEWEB-0125             
1 47271U 20100P   26199.88927824 -.00000389  00000+0 -11178-2 0  9990
2 47271  87.8979 344.3531 0001593  91.5812 268.5499 13.12442862268796
ONEWEB-0126             
1 47272U 20100Q   26199.90976523 -.00000025  00000+0 -10362-3 0  9996
2 47272  87.8969 344.3627 0001972  95.3113 264.8241 13.12443797268869
ONEWEB-0127             
1 47273U 20100R   26199.87572912  .00000035  00000+0  61078-4 0  9997
2 47273  87.8962 344.3670 0001985  96.6607 263.4747 13.12443261268881
ONEWEB-0128             
1 47274U 20100S   26199.89775157 -.00000407  00000+0 -11675-2 0  9997
2 47274  87.8967 344.3759 0001861 107.2127 252.9206 13.12443815268905
ONEWEB-0129             
1 47275U 20100T   26199.87742811 -.00000236  00000+0 -69097-3 0  9999
2 47275  87.8979 344.3564 0002963  90.3569 269.7899 13.12441280268839
