OBJECT_NAME,OBJECT_ID,EPOCH,MEAN_MOTION,ECCENTRICITY,INCLINATION,RA_OF_ASC_NODE,ARG_OF_PERICENTER,MEAN_ANOMALY,EPHEMERIS_TYPE,CLASSIFICATION_TYPE,NORAD_CAT_ID,ELEMENT_SET_NO,REV_AT_EPOCH,BSTAR,MEAN_MOTION_DOT,MEAN_MOTION_DDOT
ONEWEB-0068,2020-020Y,2026-07-18T21:25:36.508224,13.11425119,.00015999,87.8893,14.7517,93.5102,266.6209,0,U,45446,999,30675,.13234079E-2,.482E-5,0
ONEWEB-0046,2020-020Z,2026-07-18T21:13:36.325344,13.11415702,.00015959,87.8886,14.7574,85.7534,274.3776,0,U,45447,999,30676,-.70918899E-3,-.239E-5,0
ONEWEB-0063,2020-020AA,2026-07-18T10:56:07.359936,13.11418412,.00018702,87.8897,14.8444,81.9654,278.1686,0,U,45448,999,30679,-.22213579E-3,-.66E-6,0
ONEWEB-0019,2020-020AB,2026-07-18T21:01:13.426176,13.11414907,.00020004,87.8889,14.7452,96.6923,263.4433,0,U,45449,999,30669,.33695384E-3,.132E-5,0
ONEWEB-0094,2020-020AC,2026-07-18T20:50:24.133632,13.17648965,.00018511,87.9158,359.5495,100.8882,259.2458,0,U,45450,999,31048,-.90436564E-4,-.22E-6,0
ONEWEB-0087,2020-020AD,2026-07-18T20:19:42.827808,13.11418949,.00015959,87.8904,14.7431,97.7801,262.3508,0,U,45451,999,30673,.62170863E-3,.233E-5,0
ONEWEB-0082,2020-020AE,2026-07-18T11:05:29.565600,13.11419052,.0001359,87.8895,14.8337,91.3226,268.8058,0,U,45452,999,30677,.53975565E-3,.204E-5,0
ONEWEB-0050,2020-020AF,2026-07-18T19:58:50.388096,14.90477597,.00027838,88.9278,228.9117,165.4637,194.6672,0,U,45453,999,34509,.92163847E-4,.921E-5,0
ONEWEB-0034,2020-020AG,2026-07-18T22:58:50.317248,13.11414069,.00018057,87.8895,14.7441,88.9675,271.1660,0,U,45454,999,30675,-.24297838E-3,-.73E-6,0
ONEWEB-0060,2020-020AH,2026-07-18T10:54:42.292224,13.11418901,.00013659,87.8891,14.8401,124.0091,236.1167,0,U,45455,999,30664,-.36836596E-3,-.118E-5,0
ONEWEB-0086,2020-020AJ,2026-07-18T21:23:10.660704,13.11416356,.0001974,87.8895,14.7510,114.5132,245.6201,0,U,45456,999,30676,-.11626691E-2,-.399E-5,0
ONEWEB-0088,2020-020AK,2026-07-18T20:51:38.789280,13.11415366,.00016668,87.8904,14.7304,78.5882,281.5433,0,U,45457,999,30669,.11015507E-2,.403E-5,0
ONEWEB-0102,2020-100A,2026-07-18T20:22:01.694208,13.12443335,.00020806,87.8965,344.3791,103.0857,257.0504,0,U,47258,999,26888,.11522355E-2,.427E-5,0
ONEWEB-0109,2020-100B,2026-07-18T20:34:13.428768,13.12442864,.00020109,87.8976,344.3636,96.7056,263.4301,0,U,47259,999,26871,.1006919E-2,.375E-5,0
ONEWEB-0110,2020-100C,2026-07-18T21:13:15.431232,13.12442779,.0001854,87.8977,344.3421,105.9073,254.2260,0,U,47260,999,26888,-.98398288E-3,-.341E-5,0
ONEWEB-0111,2020-100D,2026-07-18T20:07:23.309472,13.12444166,.00017744,87.8976,344.3702,99.1223,261.0106,0,U,47261,999,26871,.38120745E-3,.15E-5,0
ONEWEB-0114,2020-100E,2026-07-18T20:51:17.940096,13.12441593,.00020926,87.8980,344.3619,97.2341,262.9026,0,U,47262,999,26867,.20984806E-3,.88E-6,0
ONEWEB-0117,2020-100F,2026-07-18T20:39:06.365376,13.12441861,.00018709,87.8974,344.3536,98.6913,261.4427,0,U,47263,999,26868,.94017362E-3,.351E-5,0
ONEWEB-0118,2020-100G,2026-07-18T21:27:53.421984,13.12442537,.00019309,87.8974,344.3496,86.8405,273.2944,0,U,47264,999,26888,-.10760663E-2,-.374E-5,0
ONEWEB-0119,2020-100H,2026-07-18T20:14:42.828864,13.12443306,.00018968,87.8964,344.3736,96.7943,263.3402,0,U,47265,999,26885,.89227559E-3,.334E-5,0
ONEWEB-0120,2020-100J,2026-07-18T20:49:03.754848,13.12441554,.00020141,87.8966,344.3704,95.0800,265.0559,0,U,47266,999,26888,.47098964E-3,.182E-5,0
ONEWEB-0121,2020-100K,2026-07-18T20:31:47.173440,13.12442251,.00016099,87.8976,344.3618,101.7976,258.3333,0,U,47267,999,26879,.12390575E-2,.458E-5,0
ONEWEB-0122,2020-100L,2026-07-18T20:23:15.099648,13.12441444,.00020472,87.8976,344.3681,99.7368,260.3992,0,U,47268,999,26870,.1146671E-2,.425E-5,0
ONEWEB-0123,2020-100M,2026-07-18T20:17:08.799072,13.12443062,.00018705,87.8964,344.3724,93.7250,266.4092,0,U,47269,999,26884,.89338296E-3,.334E-5,0
ONEWEB-0124,2020-100N,2026-07-18T20:02:30.296832,13.12443768,.0001759,87.8963,344.3769,97.9260,262.2068,0,U,47270,999,26872,.96733818E-4,.48E-6,0
ONEWEB-0125,2020-100P,2026-07-18T21:20:33.639936,13.12442862,.00015933,87.8979,344.3531,91.5812,268.5499,0,U,47271,999,26879,-.11177609E-2,-.389E-5,0
ONEWEB-0126,2020-100Q,2026-07-18T21:50:03.715872,13.12443797,.00019729,87.8969,344.3627,95.3113,264.8241,0,U,47272,999,26886,-.10362303E-3,-.25E-6,0
ONEWEB-0127,2020-100R,2026-07-18T21:01:02.995968,13.12443261,.00019852,87.8962,344.3670,96.6607,263.4747,0,U,47273,999,26888,.610775E-4,.35E-6,0
ONEWEB-0128,2020-100S,2026-07-18T21:32:45.735648,13.12443815,.00018613,87.8967,344.3759,107.2127,252.9206,0,U,47274,999,26890,-.11675072E-2,-.407E-5,0
ONEWEB-0129,2020-100T,2026-07-18T21:03:29.788704,13.12441280,.00029635,87.8979,344.3564,90.3569,269.7899,0,U,47275,999,26883,-.69097337E-3,-.236E-5,0
